     2.100          NAVIGATION                              RINEX VERSION / TYPE
fic2rin                                 11/30/2012 00:23:42 PGM / RUN BY / DATE
                                                            END OF HEADER
13 12 11 30  0  0  0.0  .163695309311D-03 -.272848410532D-11  .000000000000D+00
     .107000000000D+03  .125375000000D+03  .395373611755D-08  .235112785044D+01
     .658817589283D-05  .480716244783D-02  .651739537716D-05  .515359173775D+04
     .432000000000D+06  .968575477600D-07 -.230058715998D+01 -.186264514923D-07
     .983788849474D+00  .263062500000D+03  .207534243866D+01 -.776496629916D-08
     .143220251413D-09  .100000000000D+01  .171600000000D+04  .000000000000D+00
     .240000000000D+01  .000000000000D+00 -.111758708954D-07  .107000000000D+03
     .424806000000D+06  .400000000000D+01
14 12 11 30  0  0  0.0  .217537861317D-03  .568434188608D-12  .000000000000D+00
     .900000000000D+02  .118375000000D+03  .404052544696D-08  .254655127783D+01
     .607781112194D-05  .680634460878D-02  .716932117939D-05  .515367969131D+04
     .432000000000D+06  .111758708954D-07 -.232858764462D+01 -.113621354103D-06
     .976561934684D+00  .246343750000D+03 -.202064807174D+01 -.771996442465D-08
     .142148778210D-09  .100000000000D+01  .171600000000D+04  .000000000000D+00
     .340000000000D+01  .000000000000D+00 -.884756445885D-08  .900000000000D+02
     .424806000000D+06  .400000000000D+01
15 12 11 30  0  0  0.0 -.100913923234D-03 -.102318153949D-11  .000000000000D+00
     .140000000000D+02  .135562500000D+03  .482984403953D-08  .213044007797D+01
     .714510679245D-05  .501020660158D-02  .818446278572D-05  .515368299103D+04
     .432000000000D+06 -.558793544769D-07 -.242255060368D+01  .143423676491D-06
     .943344900684D+00  .212343750000D+03  .669011031338D-01 -.819855578847D-08
     .122862260563D-09  .100000000000D+01  .171600000000D+04  .000000000000D+00
     .240000000000D+01  .000000000000D+00 -.102445483208D-07  .140000000000D+02
     .424806000000D+06  .400000000000D+01
16 12 11 30  0  0  0.0 -.250221695751D-03 -.454747350886D-12  .000000000000D+00
     .550000000000D+02 -.115687500000D+03  .372729811407D-08 -.259076217338D+01
    -.599958002567D-05  .660801667254D-02  .827573239803D-05  .515379836082D+04
     .432000000000D+06 -.931322574615D-07 -.255604768473D+00 -.316649675369D-07
     .983166154005D+00  .233125000000D+03  .229116846036D-01 -.763281793750D-08
    -.145006040084D-09  .100000000000D+01  .171600000000D+04  .000000000000D+00
     .240000000000D+01  .000000000000D+00 -.977888703346D-08  .550000000000D+02
     .424806000000D+06  .400000000000D+01
17 12 11 30  0  0  0.0  .739772804081D-04 -.363797880709D-11  .000000000000D+00
     .910000000000D+02 -.518750000000D+01  .416874507354D-08  .277650071736D+01
    -.217929482460D-06  .778627523687D-02  .102352350950D-04  .515376686096D+04
     .432000000000D+06  .130385160446D-07  .782510253390D+00 -.726431608200D-07
     .964124442167D+00  .181906250000D+03 -.228486539882D+01 -.758710174753D-08
     .670385067086D-09  .100000000000D+01  .171600000000D+04  .000000000000D+00
     .340000000000D+01  .000000000000D+00 -.107102096081D-07  .910000000000D+02
     .424806000000D+06  .400000000000D+01
18 12 11 30  0  0  0.0  .227030832320D-03  .181898940355D-11  .000000000000D+00
     .420000000000D+02  .281250000000D+01  .512485632798D-08 -.203776758822D+01
     .104308128357D-06  .136122232070D-01  .952184200287D-05  .515374947548D+04
     .432000000000D+06  .165775418282D-06  .284391867677D+01 -.651925802231D-07
     .928673292342D+00  .174656250000D+03 -.213618614662D+01 -.798104672835D-08
    -.379658671450D-09  .100000000000D+01  .171600000000D+04  .000000000000D+00
     .240000000000D+01  .000000000000D+00 -.107102096081D-07  .420000000000D+02
     .424806000000D+06  .400000000000D+01
19 12 11 30  0  0  0.0 -.326639506966D-03 -.341060513165D-11  .000000000000D+00
     .700000000000D+02  .481250000000D+01  .440196907397D-08  .200623072441D+01
     .260770320892D-06  .870287709404D-02  .946410000324D-05  .515364331055D+04
     .432000000000D+06 -.132247805595D-06  .834977996094D+00  .856816768646D-07
     .961372191479D+00  .197718750000D+03  .273244021710D+00 -.784568394709D-08
     .510735559900D-09  .100000000000D+01  .171600000000D+04  .000000000000D+00
     .240000000000D+01  .000000000000D+00 -.144354999065D-07  .700000000000D+02
     .424806000000D+06  .400000000000D+01
20 12 11 30  0  0  0.0  .748885795474D-04  .113686837722D-11  .000000000000D+00
     .210000000000D+02  .109375000000D+01  .524986153495D-08 -.151256742398D+01
     .165775418282D-06  .533119577449D-02  .925734639168D-05  .515358815002D+04
     .432000000000D+06  .912696123123D-07  .279034770658D+01  .130385160446D-06
     .929247967525D+00  .185562500000D+03  .127621527771D+01 -.818605526777D-08
    -.463947896721D-09  .100000000000D+01  .171600000000D+04  .000000000000D+00
     .240000000000D+01  .000000000000D+00 -.791624188423D-08  .210000000000D+02
     .424806000000D+06  .400000000000D+01
21 12 11 30  0  0  0.0 -.265320297331D-03 -.238742359215D-11  .000000000000D+00
     .530000000000D+02  .581250000000D+01  .566166440248D-08 -.926048842177D+00
     .715255737305D-06  .194961053785D-01  .449828803539D-05  .515375509071D+04
     .432000000000D+06  .199303030968D-06  .179463120470D+01  .422820448875D-06
     .930913297875D+00  .274812500000D+03 -.220003402416D+01 -.868286167604D-08
     .771460705864D-10  .100000000000D+01  .171600000000D+04  .000000000000D+00
     .240000000000D+01  .000000000000D+00 -.111758708954D-07  .530000000000D+02
     .424806000000D+06  .400000000000D+01
22 12 11 30  0  0  0.0  .152331311256D-03  .682121026330D-12  .000000000000D+00
     .530000000000D+02  .134375000000D+01  .521057418419D-08 -.274320697818D+01
    -.372529029846D-07  .616856955457D-02  .974349677563D-05  .515367060661D+04
     .432000000000D+06  .707805156708D-07  .284690375964D+01 -.409781932831D-07
     .926410229756D+00  .172375000000D+03 -.201775396773D+01 -.810533761985D-08
    -.451804533758D-09  .100000000000D+01  .171600000000D+04  .000000000000D+00
     .240000000000D+01  .000000000000D+00 -.172294676304D-07  .530000000000D+02
     .424806000000D+06  .400000000000D+01
23 12 11 30  0  0  0.0  .138964969665D-03 -.386535248253D-11  .000000000000D+00
     .900000000000D+02  .124031250000D+03  .455304679553D-08  .162296020240D+01
     .661797821522D-05  .813083897810D-02  .737234950066D-05  .515378876114D+04
     .432000000000D+06  .000000000000D+00 -.238406281628D+01  .158324837685D-06
     .958160963410D+00  .237468750000D+03 -.291812733073D+01 -.811462372094D-08
     .617882880159D-10  .100000000000D+01  .171600000000D+04  .000000000000D+00
     .240000000000D+01  .000000000000D+00 -.204890966415D-07  .900000000000D+02
     .424806000000D+06  .400000000000D+01
24 12 11 30  0  0  0.0  .316929072142D-05 -.568434188608D-12  .000000000000D+00
     .103000000000D+03  .450000000000D+01  .489198948528D-08  .142466204442D+01
     .258907675743D-06  .240489025600D-03 -.707805156708D-07  .515372172928D+04
     .432000000000D+06 -.167638063431D-07 -.135707125441D+01 -.465661287308D-07
     .959149256736D+00  .376093750000D+03 -.398701433115D+00 -.858892919195D-08
    -.967897459671D-10  .100000000000D+01  .171600000000D+04  .000000000000D+00
     .340000000000D+01  .000000000000D+00  .419095158577D-08  .103000000000D+03
     .424806000000D+06  .400000000000D+01
25 12 11 30  0  0  0.0  .537377782166D-04  .204636307899D-11  .000000000000D+00
     .810000000000D+02 -.130281250000D+03  .400980988182D-08 -.137255133127D+01
    -.675767660141D-05  .186387321446D-02  .783614814281D-05  .515363072014D+04
     .432000000000D+06  .102445483208D-06 -.310082143686D+00 -.689178705215D-07
     .971225341194D+00  .236968750000D+03  .660287795660D+00 -.781818280155D-08
    -.272511351192D-09  .100000000000D+01  .171600000000D+04  .000000000000D+00
     .240000000000D+01  .000000000000D+00  .512227416039D-08  .810000000000D+02
     .424806000000D+06  .400000000000D+01
26 12 11 30  0  0  0.0 -.192279461771D-03  .136424205266D-10  .000000000000D+00
     .480000000000D+02  .136562500000D+03  .411267130927D-08  .147407171195D+01
     .679120421410D-05  .208771451144D-01  .773742794991D-05  .515366187096D+04
     .432000000000D+06 -.437721610069D-06 -.230730888088D+01 -.296160578728D-06
     .981287906169D+00  .242875000000D+03  .121216727298D+01 -.799569019545D-08
     .217866217860D-09  .100000000000D+01  .171600000000D+04  .000000000000D+00
     .240000000000D+01  .000000000000D+00 -.605359673500D-08  .480000000000D+02
     .424806000000D+06  .400000000000D+01
27 12 11 30  0  0  0.0 -.209170859307D-03  .329691829393D-11  .000000000000D+00
     .620000000000D+02 -.123156250000D+03  .513307095587D-08 -.271075508983D+01
    -.632181763649D-05  .563240866177D-02  .775046646595D-05  .515361275864D+04
     .432000000000D+06  .558793544769D-08 -.294308680075D+00 -.279396772385D-07
     .976105491077D+00  .238843750000D+03  .867325559362D+00 -.766424781811D-08
    -.146077513286D-09  .100000000000D+01  .171600000000D+04  .000000000000D+00
     .240000000000D+01  .630000000000D+02 -.190921127796D-07  .620000000000D+02
     .424806000000D+06  .400000000000D+01
28 12 11 30  0  0  0.0  .209358520806D-03  .352429196937D-11  .000000000000D+00
     .120000000000D+02 -.141781250000D+03  .356836292235D-08 -.280237440731D+01
    -.726990401745D-05  .184225804405D-01  .888481736183D-05  .515364346504D+04
     .432000000000D+06  .217929482460D-06 -.249130233914D+00 -.316649675369D-07
     .981573416576D+00  .214187500000D+03 -.180986443022D+01 -.732923386344D-08
    -.128219626576D-09  .100000000000D+01  .171600000000D+04  .000000000000D+00
     .240000000000D+01  .000000000000D+00 -.107102096081D-07  .120000000000D+02
     .424806000000D+06  .400000000000D+01
